NORAD_CAT_ID,OBJECT_NAME,OBJECT_TYPE,EPOCH,MEAN_MOTION,ECCENTRICITY,INCLINATION,RA_OF_ASC_NODE,ARG_OF_PERICENTER,MEAN_ANOMALY,BSTAR,MEAN_MOTION_DOT,MEAN_MOTION_DDOT,TLE_LINE0,TLE_LINE1,TLE_LINE2,SEMIMAJOR_AXIS,PERIOD,APOGEE,PERIGEE,DECAYED
51758.0,STARLINK-3458,PAYLOAD,2024-02-15 10:29:32,15.08840708,0.000161,53.2165,90.5538,93.1666,266.951,0.00011279,1.508e-05,0.0,0 STARLINK-3458,1 51758U 22016AW  24046.43718094  .00001508  00000-0  11279-3 0  9996,2 51758  53.2165  90.5538 0001610  93.1666 266.9510 15.08840708111136,6917.878,95.438,540.857,538.629,0.0
51758.0,STARLINK-3458,PAYLOAD,2024-02-15 20:01:51,15.08839593,0.0001591,53.2159,88.7696,87.5273,272.5901,3.7691e-05,3.12e-06,0.0,0 STARLINK-3458,1 51758U 22016AW  24046.83462142  .00000312  00000-0  37691-4 0  9999,2 51758  53.2159  88.7696 0001591  87.5273 272.5901 15.08839593111195,6917.882,95.438,540.847,538.646,0.0
51758.0,STARLINK-3458,PAYLOAD,2024-02-16 02:23:24,15.08833076,0.0001867,53.2166,87.5819,84.8238,275.2967,8.2462e-05,1.024e-05,0.0,0 STARLINK-3458,1 51758U 22016AW  24047.09958544  .00001024  00000-0  82462-4 0  9991,2 51758  53.2166  87.5819 0001867  84.8238 275.2967 15.08833076111231,6917.902,95.438,541.058,538.475,0.0
51758.0,STARLINK-3458,PAYLOAD,2024-02-16 10:20:19,15.08838328,0.0001508,53.2157,86.0924,96.6284,263.488,3.6229e-05,2.89e-06,0.0,0 STARLINK-3458,1 51758U 22016AW  24047.43078453  .00000289  00000-0  36229-4 0  9993,2 51758  53.2157  86.0924 0001508  96.6284 263.4880 15.08838328111289,6917.885,95.438,540.794,538.707,0.0
51758.0,STARLINK-3458,PAYLOAD,2024-02-17 02:14:12,15.08831472,0.0001685,53.2173,83.1204,95.5155,264.6029,0.00016661,2.364e-05,0.0,0 STARLINK-3458,1 51758U 22016AW  24048.09319446  .00002364  00000-0  16661-3 0  9999,2 51758  53.2173  83.1204 0001685  95.5155 264.6029 15.08831472111389,6917.906,95.438,540.937,538.606,0.0
51758.0,STARLINK-3458,PAYLOAD,2024-02-17 08:35:44,15.08835343,0.0001618,53.217,81.9303,92.2605,267.8572,0.00025633,3.793e-05,0.0,0 STARLINK-3458,1 51758U 22016AW  24048.35815483  .00003793  00000-0  25633-3 0  9996,2 51758  53.2170  81.9303 0001618  92.2605 267.8572 15.08835343111426,6917.895,95.438,540.879,538.64,0.0
51758.0,STARLINK-3458,PAYLOAD,2024-02-17 19:43:26,15.08841986,0.0001652,53.2172,79.8477,89.8988,270.2193,0.00034138,5.15e-05,0.0,0 STARLINK-3458,1 51758U 22016AW  24048.82183428  .00005150  00000-0  34138-3 0  9994,2 51758  53.2172  79.8477 0001652  89.8988 270.2193 15.08841986111494,6917.874,95.437,540.882,538.596,0.0
51758.0,STARLINK-3458,PAYLOAD,2024-02-18 08:26:31,15.08855513,0.0001667,53.2174,77.469,91.5724,268.5459,0.00056444,8.71e-05,0.0,0 STARLINK-3458,1 51758U 22016AW  24049.35175063  .00008710  00000-0  56444-3 0  9998,2 51758  53.2174  77.4690 0001667  91.5724 268.5459 15.08855513111576,6917.833,95.437,540.851,538.545,0.0
51758.0,STARLINK-3458,PAYLOAD,2024-02-19 01:55:45,15.08850283,0.0001672,53.2179,74.1986,88.5876,271.5308,0.00026899,3.997e-05,0.0,0 STARLINK-3458,1 51758U 22016AW  24050.08039017  .00003997  00000-0  26899-3 0  9991,2 51758  53.2179  74.1986 0001672  88.5876 271.5308 15.08850283111681,6917.849,95.437,540.871,538.557,0.0
51758.0,STARLINK-3458,PAYLOAD,2024-02-19 08:17:19,15.08791314,0.0001114,53.2168,73.0087,57.8416,302.2684,-0.0012315,-0.00019807,0.0,0 STARLINK-3458,1 51758U 22016AW  24050.34536337 -.00019807  00000-0 -12315-2 0  9993,2 51758  53.2168  73.0087 0001114  57.8416 302.2684 15.08791314111722,6918.029,95.441,540.665,539.124,0.0
51758.0,STARLINK-3458,PAYLOAD,2024-02-19 17:49:39,15.08803968,0.0001278,53.2179,71.2246,89.7474,270.3665,-0.00038734,-6.441e-05,0.0,0 STARLINK-3458,1 51758U 22016AW  24050.74281485 -.00006441  00000-0 -38734-3 0  9992,2 51758  53.2179  71.2246 0001278  89.7474 270.3665 15.08803968111789,6917.991,95.44,540.74,538.971,0.0
51758.0,STARLINK-3458,PAYLOAD,2024-02-20 01:46:34,15.08831282,8.82e-05,53.2179,69.738,79.509,280.6001,0.00012276,1.666e-05,0.0,0 STARLINK-3458,1 51758U 22016AW  24051.07401072  .00001666  00000-0  12276-3 0  9990,2 51758  53.2179  69.7380 0000882  79.5090 280.6001 15.08831282111835,6917.907,95.438,540.382,539.162,0.0
51758.0,STARLINK-3458,PAYLOAD,2024-02-20 08:08:06,15.08847456,0.000158,53.2181,68.5498,75.6945,284.4222,0.00024284,3.58e-05,0.0,0 STARLINK-3458,1 51758U 22016AW  24051.33896427  .00003580  00000-0  24284-3 0  9990,2 51758  53.2181  68.5498 0001580  75.6945 284.4222 15.08847456111878,6917.858,95.437,540.816,538.63,0.0
51758.0,STARLINK-3458,PAYLOAD,2024-02-20 17:40:24,15.08847713,0.000145,53.2183,66.7665,76.5547,283.5607,0.00017458,2.492e-05,0.0,0 STARLINK-3458,1 51758U 22016AW  24051.73639958  .00002492  00000-0  17458-3 0  9994,2 51758  53.2183  66.7665 0001450  76.5547 283.5607 15.08847713111930,6917.857,95.437,540.725,538.719,0.0
51758.0,STARLINK-3458,PAYLOAD,2024-02-21 07:58:53,15.08833323,0.0001227,53.2175,64.0896,67.8636,292.2487,0.00058546,9.04e-05,0.0,0 STARLINK-3458,1 51758U 22016AW  24052.33256036  .00009040  00000-0  58546-3 0  9992,2 51758  53.2175  64.0896 0001227  67.8636 292.2487 15.08833323112028,6917.901,95.438,540.615,538.917,0.0
51758.0,STARLINK-3458,PAYLOAD,2024-02-21 17:31:12,15.08825549,0.0001187,53.2182,62.3045,77.1947,282.9177,0.00054241,8.352e-05,0.0,0 STARLINK-3458,1 51758U 22016AW  24052.73000866  .00008352  00000-0  54241-3 0  9997,2 51758  53.2182  62.3045 0001187  77.1947 282.9177 15.08825549112086,6917.925,95.438,540.611,538.968,0.0
51758.0,STARLINK-3458,PAYLOAD,2024-02-22 09:25:03,15.08848632,0.000156,53.2176,59.3308,70.8813,289.2348,-2.215e-05,-6.41e-06,0.0,0 STARLINK-3458,1 51758U 22016AW  24053.39240280 -.00000641  00000-0 -22150-4 0  9996,2 51758  53.2176  59.3308 0001560  70.8813 289.2348 15.08848632112183,6917.854,95.437,540.798,538.64,0.0
51758.0,STARLINK-3458,PAYLOAD,2024-02-22 17:21:59,15.08846536,0.0001572,53.2183,57.8438,72.8934,287.223,-2.9781e-05,-7.62e-06,0.0,0 STARLINK-3458,1 51758U 22016AW  24053.72360262 -.00000762  00000-0 -29781-4 0  9997,2 51758  53.2183  57.8438 0001572  72.8934 287.2230 15.08846536112232,6917.86,95.437,540.813,538.638,0.0
51758.0,STARLINK-3458,PAYLOAD,2024-02-23 07:40:26,15.08856152,0.0001492,53.2186,55.1659,76.5314,283.5845,-3.0206e-05,-7.69e-06,0.0,0 STARLINK-3458,1 51758U 22016AW  24054.31975266 -.00000769  00000-0 -30206-4 0  9990,2 51758  53.2186  55.1659 0001492  76.5314 283.5845 15.08856152112321,6917.831,95.437,540.728,538.664,0.0
51758.0,STARLINK-3458,PAYLOAD,2024-02-23 17:12:45,15.08847187,0.0001443,53.2185,53.3847,81.1347,278.9809,5.1238e-05,5.28e-06,0.0,0 STARLINK-3458,1 51758U 22016AW  24054.71719511  .00000528  00000-0  51238-4 0  9992,2 51758  53.2185  53.3847 0001443  81.1347 278.9809 15.08847187112385,6917.858,95.437,540.722,538.725,0.0
51758.0,STARLINK-3458,PAYLOAD,2024-02-24 04:20:28,15.08836613,0.0001663,53.2191,51.3043,83.0511,277.067,7.4823e-05,9.03e-06,0.0,0 STARLINK-3458,1 51758U 22016AW  24055.18088253  .00000903  00000-0  74823-4 0  9998,2 51758  53.2191  51.3043 0001663  83.0511 277.0670 15.08836613112452,6917.891,95.438,540.906,538.605,0.0
51758.0,STARLINK-3458,PAYLOAD,2024-02-24 09:06:36,15.08846661,0.0001356,53.2183,50.4086,104.8951,255.2191,8.3226e-05,1.037e-05,0.0,0 STARLINK-3458,1 51758U 22016AW  24055.37959458  .00001037  00000-0  83226-4 0  9999,2 51758  53.2183  50.4086 0001356 104.8951 255.2191 15.08846661112482,6917.86,95.437,540.663,538.787,0.0
51758.0,STARLINK-3458,PAYLOAD,2024-02-24 17:03:33,15.0884014,0.0001265,53.2174,48.9224,85.4662,274.6475,6.0618e-05,6.77e-06,0.0,0 STARLINK-3458,1 51758U 22016AW  24055.71080030  .00000677  00000-0  60618-4 0  9997,2 51758  53.2174  48.9224 0001265  85.4662 274.6475 15.08840140112532,6917.88,95.438,540.62,538.87,0.0
51758.0,STARLINK-3458,PAYLOAD,2024-02-25 05:46:38,15.08846315,0.0001388,53.2183,46.5417,92.7545,267.3606,2.1049e-05,4.7e-07,0.0,0 STARLINK-3458,1 51758U 22016AW  24056.24071777  .00000047  00000-0  21049-4 0  9990,2 51758  53.2183  46.5417 0001388  92.7545 267.3606 15.08846315112611,6917.861,95.437,540.686,538.766,0.0
51758.0,STARLINK-3458,PAYLOAD,2024-02-25 23:15:52,15.08844894,0.0001419,53.217,43.2723,92.7542,267.3613,0.00014487,2.019e-05,0.0,0 STARLINK-3458,1 51758U 22016AW  24056.96935581  .00002019  00000-0  14487-3 0  9999,2 51758  53.2170  43.2723 0001419  92.7542 267.3613 15.08844894112723,6917.865,95.437,540.712,538.749,0.0
51758.0,STARLINK-3458,PAYLOAD,2024-02-26 04:02:01,15.08849039,0.0001427,53.2163,42.3804,90.4949,269.6207,0.00024392,3.597e-05,0.0,0 STARLINK-3458,1 51758U 22016AW  24057.16807601  .00003597  00000-0  24392-3 0  9991,2 51758  53.2163  42.3804 0001427  90.4949 269.6207 15.08849039112753,6917.853,95.437,540.705,538.731,0.0
51758.0,STARLINK-3458,PAYLOAD,2024-02-26 05:37:24,15.08851838,0.0001524,53.218,42.0838,96.8264,263.2902,0.00025617,3.793e-05,0.0,0 STARLINK-3458,1 51758U 22016AW  24057.23431426  .00003793  00000-0  25617-3 0  9996,2 51758  53.2180  42.0838 0001524  96.8264 263.2902 15.08851838112767,6917.844,95.437,540.763,538.655,0.0
51758.0,STARLINK-3458,PAYLOAD,2024-02-26 23:06:39,15.08839238,0.0001586,53.2189,38.81,114.5988,245.5169,6.9281e-05,8.15e-06,0.0,0 STARLINK-3458,1 51758U 22016AW  24057.96295975  .00000815  00000-0  69281-4 0  9991,2 51758  53.2189  38.8100 0001586 114.5988 245.5169 15.08839238112870,6917.883,95.438,540.845,538.651,0.0
51758.0,STARLINK-3458,PAYLOAD,2024-02-27 03:52:49,15.08832039,0.0001501,53.2197,37.9228,103.5654,256.5506,7.1378e-05,8.48e-06,0.0,0 STARLINK-3458,1 51758U 22016AW  24058.16168405  .00000848  00000-0  71378-4 0  9997,2 51758  53.2197  37.9228 0001501 103.5654 256.5506 15.08832039112908,6917.905,95.438,540.808,538.731,0.0
51758.0,STARLINK-3458,PAYLOAD,2024-02-27 05:28:12,15.08834743,0.000174,53.2192,37.6257,111.0843,249.0335,-7.544e-05,-1.488e-05,0.0,0 STARLINK-3458,1 51758U 22016AW  24058.22792210 -.00001488  00000-0 -75440-4 0  9998,2 51758  53.2192  37.6257 0001740 111.0843 249.0335 15.08834743112913,6917.896,95.438,540.965,538.558,0.0
